NORAD_CAT_ID,OBJECT_NAME,OBJECT_TYPE,EPOCH,MEAN_MOTION,ECCENTRICITY,INCLINATION,RA_OF_ASC_NODE,ARG_OF_PERICENTER,MEAN_ANOMALY,BSTAR,MEAN_MOTION_DOT,MEAN_MOTION_DDOT,TLE_LINE0,TLE_LINE1,TLE_LINE2,SEMIMAJOR_AXIS,PERIOD,APOGEE,PERIGEE,DECAYED
56484.0,STARLINK-6221,PAYLOAD,2023-10-16 09:58:41,14.9833272,0.0002793,69.9989,171.2541,268.4379,91.646,-1.0094e-05,-2.13e-06,0.0,0 STARLINK-6221,1 56484U 23064AN  23289.41575688 -.00000213  00000-0 -10094-4 0  9996,2 56484  69.9989 171.2541 0002793 268.4379  91.6460 14.98332720 24630,6950.184,96.107,573.991,570.108,0.0
56484.0,STARLINK-6221,PAYLOAD,2023-10-16 16:23:13,14.98321032,0.0002949,69.9987,170.5808,268.6795,91.4026,0.00019403,2.222e-05,0.0,0 STARLINK-6221,1 56484U 23064AN  23289.68279918  .00002222  00000-0  19403-3 0  9994,2 56484  69.9987 170.5808 0002949 268.6795  91.4026 14.98321032 24677,6950.221,96.108,574.135,570.036,0.0
56484.0,STARLINK-6221,PAYLOAD,2023-10-18 02:02:00,14.98368706,0.0003643,69.9988,167.0448,269.9701,90.104,0.00037711,4.414e-05,0.0,0 STARLINK-6221,1 56484U 23064AN  23291.08472560  .00004414  00000-0  37711-3 0  9996,2 56484  69.9988 167.0448 0003643 269.9701  90.1040 14.98368706 25247,6950.073,96.105,574.47,569.406,0.0
56484.0,STARLINK-6221,PAYLOAD,2023-10-19 02:04:03,14.98333803,0.0003088,69.9982,164.522,261.0746,99.0063,-4.0678e-05,-5.78e-06,0.0,0 STARLINK-6221,1 56484U 23064AN  23292.08615196 -.00000578  00000-0 -40678-4 0  9997,2 56484  69.9982 164.5220 0003088 261.0746  99.0063 14.98333803 25395,6950.181,96.107,574.192,569.9,0.0
56484.0,STARLINK-6221,PAYLOAD,2023-10-19 14:53:08,14.98334989,0.0003104,69.9994,163.1746,269.071,91.0093,-0.00010274,-1.319e-05,0.0,0 STARLINK-6221,1 56484U 23064AN  23292.62023409 -.00001319  00000-0 -10274-3 0  9999,2 56484  69.9994 163.1746 0003104 269.0710  91.0093 14.98334989 25115,6950.177,96.107,574.2,569.885,0.0
56484.0,STARLINK-6221,PAYLOAD,2023-10-19 21:17:40,14.98344688,0.0003295,69.9986,162.5014,264.0303,96.048,-0.00019384,-2.406e-05,0.0,0 STARLINK-6221,1 56484U 23064AN  23292.88726979 -.00002406  00000-0 -19384-3 0  9998,2 56484  69.9986 162.5014 0003295 264.0303  96.0480 14.98344688 25157,6950.147,96.106,574.303,569.722,0.0
56484.0,STARLINK-6221,PAYLOAD,2023-10-20 00:29:55,14.98343327,0.0003137,69.9994,162.1651,267.1746,92.9054,-8.9463e-05,-1.161e-05,0.0,0 STARLINK-6221,1 56484U 23064AN  23293.02078647 -.00001161  00000-0 -89463-4 0  9990,2 56484  69.9994 162.1651 0003137 267.1746  92.9054 14.98343327 25532,6950.152,96.106,574.197,569.836,0.0
56484.0,STARLINK-6221,PAYLOAD,2023-10-20 14:55:09,14.9832452,0.0002786,70.0005,160.6509,273.1336,86.9504,-3.9814e-05,-5.68e-06,0.0,0 STARLINK-6221,1 56484U 23064AN  23293.62163706 -.00000568  00000-0 -39814-4 0  9992,2 56484  70.0005 160.6509 0002786 273.1336  86.9504 14.98324520 25621,6950.21,96.107,574.011,570.139,0.0
56484.0,STARLINK-6221,PAYLOAD,2023-10-20 21:19:41,14.98321971,0.0003141,69.9976,159.9744,265.26,94.8201,-4.2223e-05,-5.97e-06,0.0,0 STARLINK-6221,1 56484U 23064AN  23293.88867833 -.00000597  00000-0 -42223-4 0  9992,2 56484  69.9976 159.9744 0003141 265.2600  94.8201 14.98321971 25303,6950.218,96.108,574.266,569.9,0.0
56484.0,STARLINK-6221,PAYLOAD,2023-10-21 08:32:37,14.98329419,0.0003581,69.9963,158.7979,261.5926,98.4827,-2.4386e-05,-3.84e-06,0.0,0 STARLINK-6221,1 56484U 23064AN  23294.35599484 -.00000384  00000-0 -24386-4 0  9993,2 56484  69.9963 158.7979 0003581 261.5926  98.4827 14.98329419 25370,6950.195,96.107,574.549,569.571,0.0
56484.0,STARLINK-6221,PAYLOAD,2023-10-21 21:21:41,14.98337449,0.0003109,69.9982,157.4516,270.6035,89.4768,3.1459e-05,2.82e-06,0.0,0 STARLINK-6221,1 56484U 23064AN  23294.89006853  .00000282  00000-0  31459-4 0  9999,2 56484  69.9982 157.4516 0003109 270.6035  89.4768 14.98337449 25817,6950.17,96.107,574.196,569.874,0.0
56484.0,STARLINK-6221,PAYLOAD,2023-10-22 08:34:38,14.98368509,0.0003049,69.998,156.2714,277.4181,82.6632,-0.00067894,-8.193e-05,0.0,0 STARLINK-6221,1 56484U 23064AN  23295.35738505 -.00008193  00000-0 -67894-3 0  9999,2 56484  69.9980 156.2714 0003049 277.4181  82.6632 14.98368509 25885,6950.074,96.105,574.058,569.82,0.0
56484.0,STARLINK-6221,PAYLOAD,2023-10-22 21:23:44,14.98317954,0.0002242,69.9998,154.9255,270.0991,89.9911,6.8611e-05,7.26e-06,0.0,0 STARLINK-6221,1 56484U 23064AN  23295.89148294  .00000726  00000-0  68611-4 0  9999,2 56484  69.9998 154.9255 0002242 270.0991  89.9911 14.98317954 25968,6950.23,96.108,573.653,570.537,0.0
56484.0,STARLINK-6221,PAYLOAD,2023-10-23 21:25:44,14.98330015,0.0003016,69.998,152.4018,272.4583,87.6231,-5.5975e-05,-7.61e-06,0.0,0 STARLINK-6221,1 56484U 23064AN  23296.89288037 -.00000761  00000-0 -55975-4 0  9990,2 56484  69.9980 152.4018 0003016 272.4583  87.6231 14.98330015 26113,6950.193,96.107,574.154,569.962,0.0
56484.0,STARLINK-6221,PAYLOAD,2023-10-24 00:38:00,14.98335052,0.0002977,69.9978,152.0649,273.1002,86.9816,-7.0356e-05,-9.33e-06,0.0,0 STARLINK-6221,1 56484U 23064AN  23297.02639763 -.00000933  00000-0 -70356-4 0  9993,2 56484  69.9978 152.0649 0002977 273.1002  86.9816 14.98335052 25773,6950.177,96.107,574.111,569.973,0.0
56484.0,STARLINK-6221,PAYLOAD,2023-10-25 21:29:46,14.98353969,0.0002749,69.9991,147.3501,272.1034,87.981,-0.00037671,-4.588e-05,0.0,0 STARLINK-6221,1 56484U 23064AN  23298.89567337 -.00004588  00000-0 -37671-3 0  9998,2 56484  69.9991 147.3501 0002749 272.1034  87.9810 14.98353969 26417,6950.119,96.105,573.894,570.073,0.0
56484.0,STARLINK-6221,PAYLOAD,2023-10-26 13:31:06,14.98334861,0.0002607,69.9992,145.6656,284.1139,75.9731,-5.8644e-05,-7.93e-06,0.0,0 STARLINK-6221,1 56484U 23064AN  23299.56327532 -.00000793  00000-0 -58644-4 0  9992,2 56484  69.9992 145.6656 0002607 284.1139  75.9731 14.98334861 26152,6950.178,96.107,573.855,570.231,0.0
56484.0,STARLINK-6221,PAYLOAD,2023-10-26 21:31:47,14.98332935,0.0002641,69.9988,144.8245,257.6627,102.4237,-8.4343e-05,-1.099e-05,0.0,0 STARLINK-6221,1 56484U 23064AN  23299.89707389 -.00001099  00000-0 -84343-4 0  9995,2 56484  69.9988 144.8245 0002641 257.6627 102.4237 14.98332935 26200,6950.184,96.107,573.884,570.213,0.0
56484.0,STARLINK-6221,PAYLOAD,2023-10-26 23:07:58,14.9828103,0.0003108,69.9985,144.6564,263.1587,96.9218,-0.0006762,-8.142e-05,0.0,0 STARLINK-6221,1 56484U 23064AN  23299.96387731 -.00008142  00000-0 -67620-3 0  9992,2 56484  69.9985 144.6564 0003108 263.1587  96.9218 14.98281030 26570,6950.344,96.11,574.369,570.049,0.0
56484.0,STARLINK-6221,PAYLOAD,2023-10-27 07:08:35,14.98334233,0.0003225,69.9984,143.8149,267.4664,92.6126,-6.4033e-05,-8.57e-06,0.0,0 STARLINK-6221,1 56484U 23064AN  23300.29762990 -.00000857  00000-0 -64033-4 0  9996,2 56484  69.9984 143.8149 0003225 267.4664  92.6126 14.98334233 26623,6950.18,96.107,574.286,569.803,0.0
56484.0,STARLINK-6221,PAYLOAD,2023-10-27 13:33:07,14.98326539,0.000302,69.9985,143.1415,269.6961,90.3852,2.9655e-05,2.61e-06,0.0,0 STARLINK-6221,1 56484U 23064AN  23300.56467298  .00000261  00000-0  29655-4 0  9997,2 56484  69.9985 143.1415 0003020 269.6961  90.3852 14.98326539 26306,6950.204,96.107,574.168,569.97,0.0
56484.0,STARLINK-6221,PAYLOAD,2023-10-27 21:33:47,14.98329972,0.0003026,69.998,142.3003,269.0981,90.9831,2.0361e-05,1.5e-06,0.0,0 STARLINK-6221,1 56484U 23064AN  23300.89847123  .00000150  00000-0  20361-4 0  9994,2 56484  69.9980 142.3003 0003026 269.0981  90.9831 14.98329972 26359,6950.193,96.107,574.161,569.955,0.0
56484.0,STARLINK-6221,PAYLOAD,2023-10-28 07:10:36,14.98326687,0.0002927,69.9978,141.2908,267.6407,92.4417,2.7933e-05,2.4e-06,0.0,0 STARLINK-6221,1 56484U 23064AN  23301.29903320  .00000240  00000-0  27933-4 0  9993,2 56484  69.9978 141.2908 0002927 267.6407  92.4417 14.98326687 26777,6950.203,96.107,574.102,570.034,0.0
56484.0,STARLINK-6221,PAYLOAD,2023-10-28 13:35:08,14.98329882,0.0002915,69.9972,140.6175,269.0307,91.0518,-3.9518e-05,-5.65e-06,0.0,0 STARLINK-6221,1 56484U 23064AN  23301.56607298 -.00000565  00000-0 -39518-4 0  9992,2 56484  69.9972 140.6175 0002915 269.0307  91.0518 14.98329882 26454,6950.193,96.107,574.084,570.032,0.0
56484.0,STARLINK-6221,PAYLOAD,2023-10-28 21:35:48,14.9833054,0.0002894,69.9977,139.7765,268.5012,91.5815,-1.2192e-05,-2.38e-06,0.0,0 STARLINK-6221,1 56484U 23064AN  23301.89987171 -.00000238  00000-0 -12192-4 0  9995,2 56484  69.9977 139.7765 0002894 268.5012  91.5815 14.98330540 26500,6950.191,96.107,574.068,570.045,0.0
56484.0,STARLINK-6221,PAYLOAD,2023-10-29 12:01:01,14.9833302,0.0002939,69.9977,138.2615,270.398,89.6843,4.6729e-05,4.65e-06,0.0,0 STARLINK-6221,1 56484U 23064AN  23302.50070778  .00000465  00000-0  46729-4 0  9993,2 56484  69.9977 138.2615 0002939 270.3980  89.6843 14.98333020 26957,6950.184,96.107,574.091,570.006,0.0
56484.0,STARLINK-6221,PAYLOAD,2023-10-29 13:37:09,14.98333735,0.0002938,69.9976,138.0931,270.4291,89.6532,5.3707e-05,5.48e-06,0.0,0 STARLINK-6221,1 56484U 23064AN  23302.56746695  .00000548  00000-0  53707-4 0  9993,2 56484  69.9976 138.0931 0002938 270.4291  89.6532 14.98333735 26600,6950.181,96.107,574.088,570.004,0.0
56484.0,STARLINK-6221,PAYLOAD,2023-10-29 21:37:49,14.98336944,0.0002946,69.9978,137.2515,270.6196,89.4625,6.205e-05,6.48e-06,0.0,0 STARLINK-6221,1 56484U 23064AN  23302.90126359  .00000648  00000-0  62050-4 0  9992,2 56484  69.9978 137.2515 0002946 270.6196  89.4625 14.98336944 26657,6950.171,96.107,574.084,569.989,0.0
56484.0,STARLINK-6221,PAYLOAD,2023-10-30 12:03:02,14.98327164,0.0002432,69.9987,135.7378,271.3718,88.7163,5.4304e-05,5.55e-06,0.0,0 STARLINK-6221,1 56484U 23064AN  23303.50211009  .00000555  00000-0  54304-4 0  9996,2 56484  69.9987 135.7378 0002432 271.3718  88.7163 14.98327164 27109,6950.202,96.107,573.757,570.376,0.0
56484.0,STARLINK-6221,PAYLOAD,2023-10-30 21:39:50,14.98326557,0.0002864,69.9981,134.7266,271.287,88.7961,-3.0258e-05,-4.54e-06,0.0,0 STARLINK-6221,1 56484U 23064AN  23303.90267217 -.00000454  00000-0 -30258-4 0  9994,2 56484  69.9981 134.7266 0002864 271.2870  88.7961 14.98326557 26802,6950.204,96.107,574.059,570.078,0.0
